NORAD_CAT_ID,OBJECT_NAME,OBJECT_TYPE,EPOCH,MEAN_MOTION,ECCENTRICITY,INCLINATION,RA_OF_ASC_NODE,ARG_OF_PERICENTER,MEAN_ANOMALY,BSTAR,MEAN_MOTION_DOT,MEAN_MOTION_DDOT,TLE_LINE0,TLE_LINE1,TLE_LINE2,SEMIMAJOR_AXIS,PERIOD,APOGEE,PERIGEE,DECAYED
51717.0,STARLINK-3445,PAYLOAD,2023-09-08 18:14:50,15.07251254,0.0001798,53.2177,107.5035,48.5932,311.5214,0.00016686,2.26e-05,0.0,0 STARLINK-3445,1 51717U 22016D   23251.76031047  .00002260  00000-0  16686-3 0  9993,2 51717  53.2177 107.5035 0001798  48.5932 311.5214 15.07251254 86749,6922.741,95.538,545.851,543.361,0.0
51717.0,STARLINK-3445,PAYLOAD,2023-09-08 21:25:35,15.07422678,0.0001251,53.2169,106.906,85.0366,275.0768,0.0019131,0.00029131,0.0,0 STARLINK-3445,1 51717U 22016D   23251.89276933  .00029131  00000-0  19131-2 0  9995,2 51717  53.2169 106.9060 0001251  85.0366 275.0768 15.07422678 85626,6922.216,95.527,544.947,543.215,0.0
51717.0,STARLINK-3445,PAYLOAD,2023-09-09 00:36:29,15.07467895,0.0001061,53.2168,106.3115,89.5706,270.5407,0.0022551,0.00034457,0.0,0 STARLINK-3445,1 51717U 22016D   23252.02533793  .00034457  00000-0  22551-2 0  9998,2 51717  53.2168 106.3115 0001061  89.5706 270.5407 15.07467895 86773,6922.078,95.524,544.677,543.208,0.0
51717.0,STARLINK-3445,PAYLOAD,2023-09-09 06:58:09,15.07640687,0.0001242,53.2165,105.1229,85.9494,274.164,0.0035816,0.00055316,0.0,0 STARLINK-3445,1 51717U 22016D   23252.29039049  .00055316  00000-0  35816-2 0  9997,2 51717  53.2165 105.1229 0001242  85.9494 274.1640 15.07640687 86814,6921.549,95.513,544.273,542.554,0.0
51717.0,STARLINK-3445,PAYLOAD,2023-09-09 13:19:54,15.0773641,0.000109,53.2173,103.9337,65.2185,294.892,0.0041875,0.0006498,0.0,0 STARLINK-3445,1 51717U 22016D   23252.55548947  .00064980  00000-0  41875-2 0  9997,2 51717  53.2173 103.9337 0001090  65.2185 294.8920 15.07736410 85727,6921.256,95.507,543.875,542.366,0.0
51717.0,STARLINK-3445,PAYLOAD,2023-09-09 19:41:28,15.07958943,8.29e-05,53.2173,102.7458,80.8261,279.2825,0.0054141,0.00084847,0.0,0 STARLINK-3445,1 51717U 22016D   23252.82046501  .00084847  00000-0  54141-2 0  9990,2 51717  53.2173 102.7458 0000829  80.8261 279.2825 15.07958943 86892,6920.575,95.493,543.013,541.866,0.0
51717.0,STARLINK-3445,PAYLOAD,2023-09-10 06:00:00,15.08854077,0.0001178,53.2157,100.8204,84.7353,88.1136,-0.0022662,-0.00036187,0.0,0 STARLINK-3445,1 51717U 22016D   23253.25001157 -.00036187  00000-0 -22662-2 0  9995,2 51717  53.2157 100.8204 0001178  84.7353  88.1136 15.08854077 86969,6917.837,95.437,540.517,538.887,0.0
51717.0,STARLINK-3445,PAYLOAD,2023-09-10 14:00:01,15.08839044,0.000125,53.2159,99.3235,93.717,90.7249,0.00055708,8.589e-05,0.0,0 STARLINK-3445,1 51717U 22016D   23253.58334491  .00008589  00000-0  55708-3 0  9992,2 51717  53.2159  99.3235 0001250  93.7170  90.7249 15.08839044  5709,6917.883,95.438,540.613,538.884,0.0
51717.0,STARLINK-3445,PAYLOAD,2023-09-10 22:00:00,15.08831688,0.0001216,53.2156,97.8288,86.8822,109.1583,-0.00027573,-4.672e-05,0.0,0 STARLINK-3445,1 51717U 22016D   23253.91667824 -.00004672  00000-0 -27573-3 0  9998,2 51717  53.2156  97.8288 0001216  86.8822 109.1583 15.08831688 87067,6917.906,95.438,540.612,538.93,0.0
51717.0,STARLINK-3445,PAYLOAD,2023-09-11 14:00:01,15.08851458,0.0001255,53.2153,94.8343,100.483,118.734,0.00076668,0.00011939,0.0,0 STARLINK-3445,1 51717U 22016D   23254.58334491  .00011939  00000-0  76668-3 0  9994,2 51717  53.2153  94.8343 0001255 100.4830 118.7340 15.08851458 87163,6917.845,95.437,540.579,538.842,0.0
51717.0,STARLINK-3445,PAYLOAD,2023-09-11 22:00:01,15.08840647,0.0001289,53.2151,93.3395,88.7461,142.1458,-0.0019967,-0.00031925,0.0,0 STARLINK-3445,1 51717U 22016D   23254.91668981 -.00031925  00000-0 -19967-2 0  9992,2 51717  53.2151  93.3395 0001289  88.7461 142.1458 15.08840647 87212,6917.878,95.438,540.635,538.852,0.0
51717.0,STARLINK-3445,PAYLOAD,2023-09-12 14:00:01,15.0883383,0.0001382,53.215,90.3449,99.241,154.8036,0.00079957,0.00012458,0.0,0 STARLINK-3445,1 51717U 22016D   23255.58335648  .00012458  00000-0  79957-3 0  9991,2 51717  53.2150  90.3449 0001382  99.2410 154.8036 15.08833830 87312,6917.899,95.438,540.72,538.808,0.0
51717.0,STARLINK-3445,PAYLOAD,2023-09-13 00:00:00,15.08812936,0.00013,53.2149,88.476,83.2298,275.2521,0.0030968,0.00049306,0.0,0 STARLINK-3445,1 51717U 22016D   23256.00001157  .00049306  00000-0  30968-2 0  9994,2 51717  53.2149  88.4760 0001300  83.2298 275.2521 15.08812936  5828,6917.963,95.439,540.727,538.929,0.0
51717.0,STARLINK-3445,PAYLOAD,2023-09-13 14:00:01,15.08869496,0.0001336,53.2151,85.8553,95.2347,193.5351,0.00039222,5.965e-05,0.0,0 STARLINK-3445,1 51717U 22016D   23256.58334491  .00005965  00000-0  39222-3 0  9993,2 51717  53.2151  85.8553 0001336  95.2347 193.5351 15.08869496  5656,6917.79,95.436,540.579,538.731,0.0
51717.0,STARLINK-3445,PAYLOAD,2023-09-13 22:00:00,15.08851337,0.0001335,53.2153,84.3604,88.0804,212.324,-0.0032324,-0.0005138,0.0,0 STARLINK-3445,1 51717U 22016D   23256.91667824 -.00051380  00000-0 -32324-2 0  9998,2 51717  53.2153  84.3604 0001335  88.0804 212.3240 15.08851337 87513,6917.846,95.437,540.634,538.787,0.0
51717.0,STARLINK-3445,PAYLOAD,2023-09-14 00:00:02,15.08817608,0.0001275,53.2151,83.9862,88.9442,304.4323,0.00021005,3.055e-05,0.0,0 STARLINK-3445,1 51717U 22016D   23257.00002315  .00003055  00000-0  21005-3 0  9996,2 51717  53.2151  83.9862 0001275  88.9442 304.4323 15.08817608 87532,6917.949,95.439,540.696,538.932,0.0
51717.0,STARLINK-3445,PAYLOAD,2023-09-14 12:34:19,15.08839499,0.0001332,53.2165,81.6324,90.0187,270.0957,4.3984e-05,4.12e-06,0.0,0 STARLINK-3445,1 51717U 22016D   23257.52383275  .00000412  00000-0  43984-4 0  9995,2 51717  53.2165  81.6324 0001332  90.0187 270.0957 15.08839499 86474,6917.882,95.438,540.668,538.825,0.0
51717.0,STARLINK-3445,PAYLOAD,2023-09-14 18:55:51,15.08833965,0.0001223,53.216,80.4436,84.0931,276.0201,-2.0225e-05,-6.1e-06,0.0,0 STARLINK-3445,1 51717U 22016D   23257.78879607 -.00000610  00000-0 -20225-4 0  9997,2 51717  53.2160  80.4436 0001223  84.0931 276.0201 15.08833965 86514,6917.899,95.438,540.61,538.918,0.0
51717.0,STARLINK-3445,PAYLOAD,2023-09-15 12:25:06,15.08841435,0.0001135,53.2167,77.1714,101.9764,258.1356,-2.8528e-05,-7.42e-06,0.0,0 STARLINK-3445,1 51717U 22016D   23258.51743231 -.00000742  00000-0 -28528-4 0  9992,2 51717  53.2167  77.1714 0001135 101.9764 258.1356 15.08841435 86623,6917.876,95.437,540.526,538.956,0.0
51717.0,STARLINK-3445,PAYLOAD,2023-09-15 18:46:38,15.08847436,0.0001152,53.2167,75.9841,93.1295,266.9829,0.00010401,1.368e-05,0.0,0 STARLINK-3445,1 51717U 22016D   23258.78238918  .00001368  00000-0  10401-3 0  9995,2 51717  53.2167  75.9841 0001152  93.1295 266.9829 15.08847436 87798,6917.858,95.437,540.52,538.926,0.0
51717.0,STARLINK-3445,PAYLOAD,2023-09-16 10:40:30,15.088388,0.0001277,53.2172,73.0118,99.0751,261.0386,0.00019411,2.803e-05,0.0,0 STARLINK-3445,1 51717U 22016D   23259.44479435  .00002803  00000-0  19411-3 0  9995,2 51717  53.2172  73.0118 0001277  99.0751 261.0386 15.08838800 87890,6917.884,95.438,540.632,538.866,0.0
51717.0,STARLINK-3445,PAYLOAD,2023-09-16 12:15:53,15.0883259,0.0001324,53.2177,72.7142,98.9394,261.1748,9.8846e-05,1.285e-05,0.0,0 STARLINK-3445,1 51717U 22016D   23259.51103809  .00001285  00000-0  98846-4 0  9995,2 51717  53.2177  72.7142 0001324  98.9394 261.1748 15.08832590 86771,6917.903,95.438,540.684,538.852,0.0
51717.0,STARLINK-3445,PAYLOAD,2023-09-17 12:06:40,15.08843616,0.0001339,53.2183,68.254,97.705,262.4094,5.8653e-05,6.46e-06,0.0,0 STARLINK-3445,1 51717U 22016D   23260.50463380  .00000646  00000-0  58653-4 0  9991,2 51717  53.2183  68.2540 0001339  97.7050 262.4094 15.08843616 86928,6917.869,95.437,540.661,538.808,0.0
51717.0,STARLINK-3445,PAYLOAD,2023-09-17 18:28:12,15.08848895,0.000119,53.2177,67.0637,92.9156,267.1972,0.00013401,1.846e-05,0.0,0 STARLINK-3445,1 51717U 22016D   23260.76959055  .00001846  00000-0  13401-3 0  9992,2 51717  53.2177  67.0637 0001190  92.9156 267.1972 15.08848895 88095,6917.853,95.437,540.541,538.895,0.0
51717.0,STARLINK-3445,PAYLOAD,2023-09-18 04:00:32,15.08833559,0.0001951,53.219,65.2798,90.7755,269.3461,-4.427e-05,-9.93e-06,0.0,0 STARLINK-3445,1 51717U 22016D   23261.16704079 -.00000993  00000-0 -44270-4 0  9994,2 51717  53.2190  65.2798 0001951  90.7755 269.3461 15.08833559 88159,6917.9,95.438,541.115,538.415,0.0
51717.0,STARLINK-3445,PAYLOAD,2023-09-18 18:18:59,15.08849117,0.0001165,53.2178,62.602,81.9017,278.2107,0.00023168,3.402e-05,0.0,0 STARLINK-3445,1 51717U 22016D   23261.76319250  .00003402  00000-0  23168-3 0  9991,2 51717  53.2178  62.6020 0001165  81.9017 278.2107 15.08849117 87112,6917.853,95.437,540.523,538.912,0.0
51717.0,STARLINK-3445,PAYLOAD,2023-09-18 23:05:09,15.08849021,0.0001564,53.219,61.7074,88.0136,272.1035,0.00023929,3.523e-05,0.0,0 STARLINK-3445,1 51717U 22016D   23261.96191273  .00003523  00000-0  23929-3 0  9995,2 51717  53.2190  61.7074 0001564  88.0136 272.1035 15.08849021 88273,6917.853,95.437,540.8,538.636,0.0
51717.0,STARLINK-3445,PAYLOAD,2023-09-19 10:12:51,15.0883722,9.16e-05,53.2178,59.6271,98.0885,262.0211,-6.1779e-05,-1.271e-05,0.0,0 STARLINK-3445,1 51717U 22016D   23262.42559574 -.00001271  00000-0 -61779-4 0  9995,2 51717  53.2178  59.6271 0000916  98.0885 262.0211 15.08837220 88346,6917.889,95.438,540.388,539.12,0.0
51717.0,STARLINK-3445,PAYLOAD,2023-09-19 18:09:46,15.08857869,0.0001255,53.2169,58.1403,90.2467,269.8669,0.00065979,0.00010233,0.0,0 STARLINK-3445,1 51717U 22016D   23262.75679027  .00010233  00000-0  65979-3 0  9998,2 51717  53.2169  58.1403 0001255  90.2467 269.8669 15.08857869 88392,6917.826,95.436,540.559,538.823,0.0
51717.0,STARLINK-3445,PAYLOAD,2023-09-20 10:03:38,15.08833841,0.0001494,53.218,55.1682,88.6737,271.4426,0.00010405,1.368e-05,0.0,0 STARLINK-3445,1 51717U 22016D   23263.41919968  .00001368  00000-0  10405-3 0  9996,2 51717  53.2180  55.1682 0001494  88.6737 271.4426 15.08833841 88492,6917.899,95.438,540.798,538.731,0.0
